start=new Date('2022-12-28T00:00:00.000Z').valueOf();
sats=[{"MEAN_MOTION":"15.01261186","REV_AT_EPOCH":"2564","CENTER_NAME":"EARTH","REF_FRAME":"TEME","EPHEMERIS_TYPE":"0","MEAN_ANOMALY":"116.6012","TLE_LINE1":"1 53050U 22077H   22361.48407277  .00003796  00000-0  29993-3 0  9994","OBJECT_TYPE":"PAYLOAD","GP_ID":"221566953","TIME_SYSTEM":"UTC","PERIAPSIS":"562.554","COUNTRY_CODE":"US","APOAPSIS":"563.462","PERIOD":"95.919","RCS_SIZE":"LARGE","ECCENTRICITY":"0.00006540","OBJECT_ID":"2022-077H","RA_OF_ASC_NODE":"180.0095","ELEMENT_SET_NO":"999","TLE_LINE2":"2 53050  97.6527 180.0095 0000654 243.5145 116.6012 15.01261186 25648","SITE":"AFWTR","EPOCH":"2022-12-27T11:37:03.887328","SEMIMAJOR_AXIS":"6941.143","OBJECT_NAME":"STARLINK-4343","MEAN_MOTION_DOT":"0.00003796","MEAN_MOTION_DDOT":"0.0000000000000","NORAD_CAT_ID":"53050","FILE":"3723863","DECAY_DATE":null,"MEAN_ELEMENT_THEORY":"SGP4","ARG_OF_PERICENTER":"243.5145","CLASSIFICATION_TYPE":"U","LAUNCH_DATE":"2022-07-11","INCLINATION":"97.6527","BSTAR":"0.00029993000000"},{"APOAPSIS":"563.884","RCS_SIZE":"LARGE","PERIOD":"95.918","ECCENTRICITY":"0.00013400","CENTER_NAME":"EARTH","MEAN_MOTION":"15.01278649","REV_AT_EPOCH":"2622","EPHEMERIS_TYPE":"0","MEAN_ANOMALY":"174.6716","REF_FRAME":"TEME","OBJECT_TYPE":"PAYLOAD","GP_ID":"221595700","TIME_SYSTEM":"UTC","TLE_LINE1":"1 53051U 22077J   22361.47851665  .00003750  00000-0  29624-3 0  9999","COUNTRY_CODE":"US","PERIAPSIS":"562.024","NORAD_CAT_ID":"53051","ARG_OF_PERICENTER":"185.4494","CLASSIFICATION_TYPE":"U","DECAY_DATE":null,"FILE":"3724001","MEAN_ELEMENT_THEORY":"SGP4","BSTAR":"0.00029624000000","INCLINATION":"97.6524","LAUNCH_DATE":"2022-07-11","RA_OF_ASC_NODE":"180.0038","OBJECT_ID":"2022-077J","ELEMENT_SET_NO":"999","TLE_LINE2":"2 53051  97.6524 180.0038 0001340 185.4494 174.6716 15.01278649 26229","SITE":"AFWTR","EPOCH":"2022-12-27T11:29:03.838560","OBJECT_NAME":"STARLINK-4336","SEMIMAJOR_AXIS":"6941.089","MEAN_MOTION_DOT":"0.00003750","MEAN_MOTION_DDOT":"0.0000000000000"},{"MEAN_MOTION_DOT":"0.00001529","MEAN_MOTION_DDOT":"0.0000000000000","SEMIMAJOR_AXIS":"6941.129","OBJECT_NAME":"STARLINK-4341","ELEMENT_SET_NO":"999","TLE_LINE2":"2 53052  97.6542 180.2064 0000767 233.4944 126.6210 15.01265775 25677","EPOCH":"2022-12-27T16:22:20.373600","SITE":"AFWTR","OBJECT_ID":"2022-077K","RA_OF_ASC_NODE":"180.2064","LAUNCH_DATE":"2022-07-11","BSTAR":"0.00012360000000","INCLINATION":"97.6542","MEAN_ELEMENT_THEORY":"SGP4","FILE":"3724149","DECAY_DATE":null,"ARG_OF_PERICENTER":"233.4944","CLASSIFICATION_TYPE":"U","NORAD_CAT_ID":"53052","PERIAPSIS":"562.462","COUNTRY_CODE":"US","TLE_LINE1":"1 53052U 22077K   22361.68218025  .00001529  00000-0  12360-3 0  9991","GP_ID":"221624678","TIME_SYSTEM":"UTC","OBJECT_TYPE":"PAYLOAD","REF_FRAME":"TEME","EPHEMERIS_TYPE":"0","MEAN_ANOMALY":"126.6210","REV_AT_EPOCH":"2567","MEAN_MOTION":"15.01265775","CENTER_NAME":"EARTH","ECCENTRICITY":"0.00007670","PERIOD":"95.919","RCS_SIZE":"LARGE","APOAPSIS":"563.526"},{"ELEMENT_SET_NO":"999","SITE":"AFWTR","TLE_LINE2":"2 53053  97.6527 180.2604 0001252 172.7468 187.3775 15.01265299 25689","EPOCH":"2022-12-27T17:47:39.452640","RA_OF_ASC_NODE":"180.2604","OBJECT_ID":"2022-077L","MEAN_MOTION_DOT":"0.00002681","MEAN_MOTION_DDOT":"0.0000000000000","SEMIMAJOR_AXIS":"6941.131","OBJECT_NAME":"STARLINK-4337","ARG_OF_PERICENTER":"172.7468","CLASSIFICATION_TYPE":"U","DECAY_DATE":null,"FILE":"3724149","MEAN_ELEMENT_THEORY":"SGP4","NORAD_CAT_ID":"53053","INCLINATION":"97.6527","BSTAR":"0.00021318000000","LAUNCH_DATE":"2022-07-11","EPHEMERIS_TYPE":"0","MEAN_ANOMALY":"187.3775","REF_FRAME":"TEME","CENTER_NAME":"EARTH","REV_AT_EPOCH":"2568","MEAN_MOTION":"15.01265299","PERIAPSIS":"562.126","COUNTRY_CODE":"US","GP_ID":"221624892","OBJECT_TYPE":"PAYLOAD","TIME_SYSTEM":"UTC","TLE_LINE1":"1 53053U 22077L   22361.74142885  .00002681  00000-0  21318-3 0  9992","APOAPSIS":"563.865","ECCENTRICITY":"0.00012520","RCS_SIZE":"LARGE","PERIOD":"95.919"},{"APOAPSIS":"563.531","RCS_SIZE":"LARGE","PERIOD":"95.919","ECCENTRICITY":"0.00008100","CENTER_NAME":"EARTH","MEAN_MOTION":"15.01273977","REV_AT_EPOCH":"2564","MEAN_ANOMALY":"161.5711","EPHEMERIS_TYPE":"0","REF_FRAME":"TEME","GP_ID":"221567366","OBJECT_TYPE":"PAYLOAD","TIME_SYSTEM":"UTC","TLE_LINE1":"1 53054U 22077M   22361.48037132  .00003069  00000-0  24334-3 0  9994","COUNTRY_CODE":"US","PERIAPSIS":"562.407","NORAD_CAT_ID":"53054","CLASSIFICATION_TYPE":"U","ARG_OF_PERICENTER":"198.5484","DECAY_DATE":null,"FILE":"3723863","MEAN_ELEMENT_THEORY":"SGP4","BSTAR":"0.00024334000000","INCLINATION":"97.6532","LAUNCH_DATE":"2022-07-11","RA_OF_ASC_NODE":"180.0053","OBJECT_ID":"2022-077M","TLE_LINE2":"2 53054  97.6532 180.0053 0000810 198.5484 161.5711 15.01273977 25647","SITE":"AFWTR","EPOCH":"2022-12-27T11:31:44.082048","ELEMENT_SET_NO":"999","SEMIMAJOR_AXIS":"6941.104","OBJECT_NAME":"STARLINK-4339","MEAN_MOTION_DDOT":"0.0000000000000","MEAN_MOTION_DOT":"0.00003069"},{"NORAD_CAT_ID":"53055","DECAY_DATE":null,"FILE":"3724149","MEAN_ELEMENT_THEORY":"SGP4","ARG_OF_PERICENTER":"151.4602","CLASSIFICATION_TYPE":"U","LAUNCH_DATE":"2022-07-11","INCLINATION":"97.6536","BSTAR":"0.00025618000000","OBJECT_ID":"2022-077N","RA_OF_ASC_NODE":"180.2578","ELEMENT_SET_NO":"999","EPOCH":"2022-12-27T17:44:59.088192","TLE_LINE2":"2 53055  97.6536 180.2578 0001910 151.4602 208.6727 15.01270514 25686","SITE":"AFWTR","OBJECT_NAME":"STARLINK-4338","SEMIMAJOR_AXIS":"6941.114","MEAN_MOTION_DOT":"0.00003234","MEAN_MOTION_DDOT":"0.0000000000000","APOAPSIS":"564.305","PERIOD":"95.919","RCS_SIZE":"LARGE","ECCENTRICITY":"0.00019100","REV_AT_EPOCH":"2568","MEAN_MOTION":"15.01270514","CENTER_NAME":"EARTH","REF_FRAME":"TEME","EPHEMERIS_TYPE":"0","MEAN_ANOMALY":"208.6727","TLE_LINE1":"1 53055U 22077N   22361.73957278  .00003234  00000-0  25618-3 0  9995","TIME_SYSTEM":"UTC","GP_ID":"221625319","OBJECT_TYPE":"PAYLOAD","COUNTRY_CODE":"US","PERIAPSIS":"561.654"},{"PERIAPSIS":"562.424","COUNTRY_CODE":"US","TIME_SYSTEM":"UTC","GP_ID":"221624251","OBJECT_TYPE":"PAYLOAD","TLE_LINE1":"1 53056U 22077P   22361.74328278  .00000753  00000-0  63225-4 0  9999","EPHEMERIS_TYPE":"0","MEAN_ANOMALY":"177.3519","REF_FRAME":"TEME","CENTER_NAME":"EARTH","MEAN_MOTION":"15.01258281","REV_AT_EPOCH":"2568","ECCENTRICITY":"0.00008550","RCS_SIZE":"LARGE","PERIOD":"95.920","APOAPSIS":"563.611","MEAN_MOTION_DOT":"0.00000753","MEAN_MOTION_DDOT":"0.0000000000000","OBJECT_NAME":"STARLINK-4314","SEMIMAJOR_AXIS":"6941.152","ELEMENT_SET_NO":"999","SITE":"AFWTR","TLE_LINE2":"2 53056  97.6528 180.2623 0000855 182.7701 177.3519 15.01258281 25681","EPOCH":"2022-12-27T17:50:19.632192","RA_OF_ASC_NODE":"180.2623","OBJECT_ID":"2022-077P","BSTAR":"0.00006322500000","INCLINATION":"97.6528","LAUNCH_DATE":"2022-07-11","ARG_OF_PERICENTER":"182.7701","CLASSIFICATION_TYPE":"U","FILE":"3724149","DECAY_DATE":null,"MEAN_ELEMENT_THEORY":"SGP4","NORAD_CAT_ID":"53056"},{"LAUNCH_DATE":"2022-07-11","INCLINATION":"97.6557","BSTAR":"0.00029604000000","MEAN_ELEMENT_THEORY":"SGP4","FILE":"3724149","DECAY_DATE":null,"CLASSIFICATION_TYPE":"U","ARG_OF_PERICENTER":"93.1089","NORAD_CAT_ID":"53057","MEAN_MOTION_DDOT":"0.0000000000000","MEAN_MOTION_DOT":"0.00003747","SEMIMAJOR_AXIS":"6941.091","OBJECT_NAME":"STARLINK-4252","SITE":"AFWTR","TLE_LINE2":"2 53057  97.6557 180.2535 0001012  93.1089 267.0251 15.01278075 25689","EPOCH":"2022-12-27T17:39:39.435840","ELEMENT_SET_NO":"999","OBJECT_ID":"2022-077Q","RA_OF_ASC_NODE":"180.2535","ECCENTRICITY":"0.00010120","PERIOD":"95.918","RCS_SIZE":"LARGE","APOAPSIS":"563.659","PERIAPSIS":"562.254","COUNTRY_CODE":"US","TLE_LINE1":"1 53057U 22077Q   22361.73587310  .00003747  00000-0  29604-3 0  9991","OBJECT_TYPE":"PAYLOAD","GP_ID":"221624464","TIME_SYSTEM":"UTC","REF_FRAME":"TEME","MEAN_ANOMALY":"267.0251","EPHEMERIS_TYPE":"0","REV_AT_EPOCH":"2568","MEAN_MOTION":"15.01278075","CENTER_NAME":"EARTH"},{"FILE":"3724149","MEAN_ELEMENT_THEORY":"SGP4","DECAY_DATE":null,"CLASSIFICATION_TYPE":"U","ARG_OF_PERICENTER":"156.8161","NORAD_CAT_ID":"53058","LAUNCH_DATE":"2022-07-11","BSTAR":"0.00024685000000","INCLINATION":"97.6544","TLE_LINE2":"2 53058  97.6544 180.2591 0001244 156.8161 203.3120 15.01267634 25680","SITE":"AFWTR","EPOCH":"2022-12-27T17:45:20.518848","ELEMENT_SET_NO":"999","OBJECT_ID":"2022-077R","RA_OF_ASC_NODE":"180.2591","MEAN_MOTION_DDOT":"0.0000000000000","MEAN_MOTION_DOT":"0.00003114","OBJECT_NAME":"STARLINK-4317","SEMIMAJOR_AXIS":"6941.123","APOAPSIS":"563.852","ECCENTRICITY":"0.00012440","PERIOD":"95.919","RCS_SIZE":"LARGE","REF_FRAME":"TEME","MEAN_ANOMALY":"203.3120","EPHEMERIS_TYPE":"0","MEAN_MOTION":"15.01267634","REV_AT_EPOCH":"2568","CENTER_NAME":"EARTH","PERIAPSIS":"562.125","COUNTRY_CODE":"US","TLE_LINE1":"1 53058U 22077R   22361.73982082  .00003114  00000-0  24685-3 0  9999","GP_ID":"221625107","TIME_SYSTEM":"UTC","OBJECT_TYPE":"PAYLOAD"},{"APOAPSIS":"563.280","RCS_SIZE":"LARGE","PERIOD":"95.918","ECCENTRICITY":"0.00004540","CENTER_NAME":"EARTH","REV_AT_EPOCH":"2565","MEAN_MOTION":"15.01275366","EPHEMERIS_TYPE":"0","MEAN_ANOMALY":"308.1691","REF_FRAME":"TEME","TIME_SYSTEM":"UTC","GP_ID":"221625747","OBJECT_TYPE":"PAYLOAD","TLE_LINE1":"1 53059U 22077S   22361.53245231  .00002207  00000-0  17626-3 0  9995","PERIAPSIS":"562.649","COUNTRY_CODE":"US","NORAD_CAT_ID":"53059","ARG_OF_PERICENTER":"51.9574","CLASSIFICATION_TYPE":"U","MEAN_ELEMENT_THEORY":"SGP4","FILE":"3724149","DECAY_DATE":null,"BSTAR":"0.00017626000000","INCLINATION":"97.6564","LAUNCH_DATE":"2022-07-11","RA_OF_ASC_NODE":"180.0519","OBJECT_ID":"2022-077S","ELEMENT_SET_NO":"999","EPOCH":"2022-12-27T12:46:43.879584","TLE_LINE2":"2 53059  97.6564 180.0519 0000454  51.9574 308.1691 15.01275366 25651","SITE":"AFWTR","SEMIMAJOR_AXIS":"6941.099","OBJECT_NAME":"STARLINK-4320","MEAN_MOTION_DOT":"0.00002207","MEAN_MOTION_DDOT":"0.0000000000000"}];
